NORAD_CAT_ID,OBJECT_NAME,OBJECT_TYPE,EPOCH,MEAN_MOTION,ECCENTRICITY,INCLINATION,RA_OF_ASC_NODE,ARG_OF_PERICENTER,MEAN_ANOMALY,BSTAR,MEAN_MOTION_DOT,MEAN_MOTION_DDOT,TLE_LINE0,TLE_LINE1,TLE_LINE2,SEMIMAJOR_AXIS,PERIOD,APOGEE,PERIGEE,DECAYED
55635.0,STARLINK-5495,PAYLOAD,2023-12-15 12:00:37,14.98328574,0.0002944,70.0008,79.8605,258.7516,101.3312,-4.7525e-05,-6.6e-06,0.0,0 STARLINK-5495,1 55635U 23021H   23349.50043231 -.00000660  00000-0 -47525-4 0  9992,2 55635  70.0008  79.8605 0002944 258.7516 101.3312 14.98328574 46382,6950.197,96.107,574.108,570.016,0.0
55635.0,STARLINK-5495,PAYLOAD,2023-12-15 13:36:45,14.98336036,0.0002613,70.0007,79.6918,249.5794,110.5084,-0.00017039,-2.126e-05,0.0,0 STARLINK-5495,1 55635U 23021H   23349.56719104 -.00002126  00000-0 -17039-3 0  9992,2 55635  70.0007  79.6918 0002613 249.5794 110.5084 14.98336036 46699,6950.174,96.107,573.855,570.223,0.0
55635.0,STARLINK-5495,PAYLOAD,2023-12-15 15:12:53,14.98338286,0.000264,70.0006,79.5233,253.2597,106.8273,-0.00021319,-2.636e-05,0.0,0 STARLINK-5495,1 55635U 23021H   23349.63395061 -.00002636  00000-0 -21319-3 0  9994,2 55635  70.0006  79.5233 0002640 253.2597 106.8273 14.98338286 46709,6950.167,96.106,573.867,570.197,0.0
55635.0,STARLINK-5495,PAYLOAD,2023-12-16 13:38:46,14.98329396,0.0002758,70.0009,77.1667,253.817,106.2686,8.9857e-05,9.79e-06,0.0,0 STARLINK-5495,1 55635U 23021H   23350.56858820  .00000979  00000-0  89857-4 0  9993,2 55635  70.0009  77.1667 0002758 253.8170 106.2686 14.98329396 46849,6950.195,96.107,573.977,570.143,0.0
55635.0,STARLINK-5495,PAYLOAD,2023-12-16 15:14:54,14.98330093,0.0002764,70.0009,76.9985,254.9415,105.1439,8.4949e-05,9.21e-06,0.0,0 STARLINK-5495,1 55635U 23021H   23350.63534797  .00000921  00000-0  84949-4 0  9999,2 55635  70.0009  76.9985 0002764 254.9415 105.1439 14.98330093 46558,6950.193,96.107,573.979,570.137,0.0
55635.0,STARLINK-5495,PAYLOAD,2023-12-17 13:40:47,14.98325831,0.0002679,70.0013,74.6422,248.3489,111.7384,8.9425e-06,1.4e-07,0.0,0 STARLINK-5495,1 55635U 23021H   23351.56999257  .00000014  00000-0  89425-5 0  9996,2 55635  70.0013  74.6422 0002679 248.3489 111.7384 14.98325831 46991,6950.206,96.107,573.933,570.209,0.0
55635.0,STARLINK-5495,PAYLOAD,2023-12-17 15:16:55,14.98326569,0.0002678,70.0014,74.474,247.8632,112.2243,1.4561e-05,8.1e-07,0.0,0 STARLINK-5495,1 55635U 23021H   23351.63675204  .00000081  00000-0  14561-4 0  9999,2 55635  70.0014  74.4740 0002678 247.8632 112.2243 14.98326569 46704,6950.204,96.107,573.93,570.207,0.0
55635.0,STARLINK-5495,PAYLOAD,2023-12-18 12:06:39,14.98338694,0.0002938,70.0006,72.2848,264.5402,95.5422,7.343e-05,7.83e-06,0.0,0 STARLINK-5495,1 55635U 23021H   23352.50461966  .00000783  00000-0  73430-4 0  9993,2 55635  70.0006  72.2848 0002938 264.5402  95.5422 14.98338694 46838,6950.166,96.106,574.073,569.989,0.0
55635.0,STARLINK-5495,PAYLOAD,2023-12-18 13:42:47,14.98339376,0.0002917,70.0008,72.1168,259.3088,100.7743,9.1996e-05,1.005e-05,0.0,0 STARLINK-5495,1 55635U 23021H   23352.57137797  .00001005  00000-0  91996-4 0  9997,2 55635  70.0008  72.1168 0002917 259.3088 100.7743 14.98339376 47141,6950.164,96.106,574.056,570.002,0.0
55635.0,STARLINK-5495,PAYLOAD,2023-12-18 15:18:54,14.98343317,0.0002911,70.0006,71.9481,258.2049,101.8784,9.4184e-05,1.031e-05,0.0,0 STARLINK-5495,1 55635U 23021H   23352.63813476  .00001031  00000-0  94184-4 0  9990,2 55635  70.0006  71.9481 0002911 258.2049 101.8784 14.98343317 47151,6950.152,96.106,574.04,569.994,0.0
55635.0,STARLINK-5495,PAYLOAD,2023-12-19 12:08:40,14.98327208,0.0002856,70.0006,69.7604,255.4553,104.629,-4.5906e-05,-6.41e-06,0.0,0 STARLINK-5495,1 55635U 23021H   23353.50602805 -.00000641  00000-0 -45906-4 0  9995,2 55635  70.0006  69.7604 0002856 255.4553 104.6290 14.98327208 46984,6950.202,96.107,574.052,570.082,0.0
55635.0,STARLINK-5495,PAYLOAD,2023-12-19 13:44:48,14.98327001,0.0002788,70.0009,69.5926,251.7463,108.3393,-3.7506e-05,-5.4e-06,0.0,0 STARLINK-5495,1 55635U 23021H   23353.57278795 -.00000540  00000-0 -37506-4 0  9994,2 55635  70.0009  69.5926 0002788 251.7463 108.3393 14.98327001 47296,6950.202,96.107,574.005,570.129,0.0
55635.0,STARLINK-5495,PAYLOAD,2023-12-20 13:46:50,14.98328241,0.0002673,70.0008,67.0672,258.554,101.5319,-0.00011094,-1.416e-05,0.0,0 STARLINK-5495,1 55635U 23021H   23354.57419098 -.00001416  00000-0 -11094-3 0  9994,2 55635  70.0008  67.0672 0002673 258.5540 101.5319 14.98328241 47447,6950.198,96.107,573.921,570.206,0.0
55635.0,STARLINK-5495,PAYLOAD,2023-12-20 15:22:58,14.98328996,0.0002704,70.0007,66.899,255.5957,104.4902,-0.00010636,-1.362e-05,0.0,0 STARLINK-5495,1 55635U 23021H   23354.64095016 -.00001362  00000-0 -10636-3 0  9993,2 55635  70.0007  66.8990 0002704 255.5957 104.4902 14.98328996 47155,6950.196,96.107,573.94,570.182,0.0
55635.0,STARLINK-5495,PAYLOAD,2023-12-21 13:48:51,14.98309753,0.0002544,70.0006,64.5418,258.1512,101.9361,-0.00018891,-2.345e-05,0.0,0 STARLINK-5495,1 55635U 23021H   23355.57559130 -.00002345  00000-0 -18891-3 0  9991,2 55635  70.0006  64.5418 0002544 258.1512 101.9361 14.98309753 47591,6950.256,96.108,573.889,570.352,0.0
55635.0,STARLINK-5495,PAYLOAD,2023-12-22 12:14:43,14.98321078,0.0002712,70.0001,62.1844,263.1727,96.9124,-5.5283e-05,-7.52e-06,0.0,0 STARLINK-5495,1 55635U 23021H   23356.51022707 -.00000752  00000-0 -55283-4 0  9998,2 55635  70.0001  62.1844 0002712 263.1727  96.9124 14.98321078 47431,6950.22,96.108,573.97,570.201,0.0
55635.0,STARLINK-5495,PAYLOAD,2023-12-22 13:50:51,14.98322951,0.0002666,70.0003,62.0169,259.7692,100.3167,-4.7909e-05,-6.64e-06,0.0,0 STARLINK-5495,1 55635U 23021H   23356.57698592 -.00000664  00000-0 -47909-4 0  9993,2 55635  70.0003  62.0169 0002666 259.7692 100.3167 14.98322951 47744,6950.215,96.107,573.933,570.227,0.0
55635.0,STARLINK-5495,PAYLOAD,2023-12-23 04:16:03,14.98311145,0.0002452,70.0007,60.5016,256.3278,103.7608,0.0002129,2.447e-05,0.0,0 STARLINK-5495,1 55635U 23021H   23357.17782067  .00002447  00000-0  21290-3 0  9994,2 55635  70.0007  60.5016 0002452 256.3278 103.7608 14.98311145 47535,6950.251,96.108,573.82,570.412,0.0
55635.0,STARLINK-5495,PAYLOAD,2023-12-23 13:52:52,14.98314747,0.0002578,70.0004,59.4911,261.7738,98.3129,0.00022854,2.634e-05,0.0,0 STARLINK-5495,1 55635U 23021H   23357.57838276  .00002634  00000-0  22854-3 0  9997,2 55635  70.0004  59.4911 0002578 261.7738  98.3129 14.98314747 47890,6950.24,96.108,573.897,570.313,0.0
55635.0,STARLINK-5495,PAYLOAD,2023-12-24 12:18:45,14.98328544,0.0002637,70.0002,57.1349,260.0942,99.992,0.00010973,1.216e-05,0.0,0 STARLINK-5495,1 55635U 23021H   23358.51302228  .00001216  00000-0  10973-3 0  9999,2 55635  70.0002  57.1349 0002637 260.0942  99.9920 14.98328544 47732,6950.197,96.107,573.895,570.23,0.0
55635.0,STARLINK-5495,PAYLOAD,2023-12-24 13:54:53,14.98329801,0.0002635,70.0003,56.9668,260.481,99.6051,0.00012052,1.345e-05,0.0,0 STARLINK-5495,1 55635U 23021H   23358.57978119  .00001345  00000-0  12052-3 0  9996,2 55635  70.0003  56.9668 0002635 260.4810  99.6051 14.98329801 48044,6950.194,96.107,573.89,570.227,0.0
55635.0,STARLINK-5495,PAYLOAD,2023-12-24 15:31:01,14.98330863,0.0002642,70.0003,56.7985,260.9555,99.1305,0.00012884,1.445e-05,0.0,0 STARLINK-5495,1 55635U 23021H   23358.64654029  .00001445  00000-0  12884-3 0  9999,2 55635  70.0003  56.7985 0002642 260.9555  99.1305 14.98330863 48051,6950.19,96.107,573.891,570.219,0.0
55635.0,STARLINK-5495,PAYLOAD,2023-12-25 12:20:45,14.98333173,0.0002553,70.0005,54.6102,260.8285,99.2585,5.1851e-05,5.26e-06,0.0,0 STARLINK-5495,1 55635U 23021H   23359.51442044  .00000526  00000-0  51851-4 0  9995,2 55635  70.0005  54.6102 0002553 260.8285  99.2585 14.98333173 47889,6950.183,96.107,573.822,570.274,0.0
55635.0,STARLINK-5495,PAYLOAD,2023-12-25 13:56:53,14.9833342,0.0002561,70.0005,54.4419,261.9002,98.1867,5.2338e-05,5.32e-06,0.0,0 STARLINK-5495,1 55635U 23021H   23359.58118014  .00000532  00000-0  52338-4 0  9997,2 55635  70.0005  54.4419 0002561 261.9002  98.1867 14.98333420 48197,6950.182,96.107,573.827,570.267,0.0
55635.0,STARLINK-5495,PAYLOAD,2023-12-26 10:46:39,14.98326893,0.0002467,70.0008,52.2543,255.0914,104.9972,-6.4826e-05,-8.66e-06,0.0,0 STARLINK-5495,1 55635U 23021H   23360.44906724 -.00000866  00000-0 -64826-4 0  9994,2 55635  70.0008  52.2543 0002467 255.0914 104.9972 14.98326893 48026,6950.202,96.107,573.782,570.353,0.0
55635.0,STARLINK-5495,PAYLOAD,2023-12-26 13:58:55,14.98326586,0.0002439,70.0008,51.9171,261.8335,98.2547,-5.9603e-05,-8.04e-06,0.0,0 STARLINK-5495,1 55635U 23021H   23360.58258790 -.00000804  00000-0 -59603-4 0  9991,2 55635  70.0008  51.9171 0002439 261.8335  98.2547 14.98326586 48347,6950.203,96.107,573.764,570.373,0.0
55635.0,STARLINK-5495,PAYLOAD,2023-12-27 10:48:39,14.98331686,0.000262,70.0003,49.7276,266.6357,93.4502,6.3196e-06,-1.8e-07,0.0,0 STARLINK-5495,1 55635U 23021H   23361.45046250 -.00000018  00000-0  63196-5 0  9993,2 55635  70.0003  49.7276 0002620 266.6357  93.4502 14.98331686 48178,6950.188,96.107,573.874,570.232,0.0
55635.0,STARLINK-5495,PAYLOAD,2023-12-27 12:24:47,14.98332085,0.0002608,70.0001,49.5594,262.4992,97.587,2.0574e-05,1.53e-06,0.0,0 STARLINK-5495,1 55635U 23021H   23361.51722152  .00000153  00000-0  20574-4 0  9993,2 55635  70.0001  49.5594 0002608 262.4992  97.5870 14.98332085 48483,6950.186,96.107,573.864,570.239,0.0
55635.0,STARLINK-5495,PAYLOAD,2023-12-28 04:26:07,14.98343416,0.0002752,70.0,47.8767,263.504,96.5805,0.00020251,2.325e-05,0.0,0 STARLINK-5495,1 55635U 23021H   23362.18480444  .00002325  00000-0  20251-3 0  9996,2 55635  70.0000  47.8767 0002752 263.5040  96.5805 14.98343416 48286,6950.151,96.106,573.929,570.104,0.0
55635.0,STARLINK-5495,PAYLOAD,2023-12-28 10:50:41,14.98317946,0.0002893,69.9999,47.204,257.822,102.2615,-0.00010847,-1.387e-05,0.0,0 STARLINK-5495,1 55635U 23021H   23362.45186636 -.00001387  00000-0 -10847-3 0  9991,2 55635  69.9999  47.2040 0002893 257.8220 102.2615 14.98317946 48328,6950.23,96.108,574.106,570.084,0.0
